<?xml version="1.0" encoding="UTF-8"?>
<osm version="0.6" generator="RouteX sample">
  <node id="1001" lat="38.035610" lon="-78.503410" />
  <node id="1002" lat="38.034920" lon="-78.501820" />
  <node id="1003" lat="38.034120" lon="-78.500210" />
  <node id="1004" lat="38.033020" lon="-78.498760" />
  <node id="1005" lat="38.031860" lon="-78.497480" />
  <node id="1006" lat="38.030820" lon="-78.499420" />
  <node id="1007" lat="38.032220" lon="-78.501230" />
  <node id="1008" lat="38.033280" lon="-78.503240" />
  <node id="1009" lat="38.034780" lon="-78.504640" />
  <node id="1010" lat="38.036060" lon="-78.501070" />
  <node id="1011" lat="38.035120" lon="-78.498980" />
  <node id="1012" lat="38.032040" lon="-78.495900" />
  <way id="5001"><nd ref="1001" /><nd ref="1002" /><tag k="highway" v="residential" /><tag k="name" v="McCormick Road" /></way>
  <way id="5002"><nd ref="1002" /><nd ref="1003" /><tag k="highway" v="residential" /><tag k="name" v="McCormick Road" /></way>
  <way id="5003"><nd ref="1003" /><nd ref="1004" /><tag k="highway" v="secondary" /><tag k="name" v="University Avenue" /></way>
  <way id="5004"><nd ref="1004" /><nd ref="1005" /><tag k="highway" v="secondary" /><tag k="name" v="University Avenue" /></way>
  <way id="5005"><nd ref="1005" /><nd ref="1012" /><tag k="highway" v="secondary" /><tag k="name" v="Main Street" /></way>
  <way id="5006"><nd ref="1001" /><nd ref="1009" /><tag k="highway" v="residential" /><tag k="name" v="Rugby Road" /></way>
  <way id="5007"><nd ref="1009" /><nd ref="1008" /><tag k="highway" v="residential" /><tag k="name" v="Rugby Road" /></way>
  <way id="5008"><nd ref="1008" /><nd ref="1007" /><tag k="highway" v="primary" /><tag k="name" v="Emmet Street" /></way>
  <way id="5009"><nd ref="1007" /><nd ref="1006" /><tag k="highway" v="residential" /><tag k="name" v="Jefferson Park Avenue" /></way>
  <way id="5010"><nd ref="1006" /><nd ref="1005" /><tag k="highway" v="residential" /><tag k="name" v="Jefferson Park Avenue" /></way>
  <way id="5011"><nd ref="1002" /><nd ref="1010" /><tag k="highway" v="service" /><tag k="name" v="Hospital Drive" /></way>
  <way id="5012"><nd ref="1010" /><nd ref="1011" /><tag k="highway" v="service" /><tag k="name" v="Hospital Drive" /></way>
  <way id="5013"><nd ref="1011" /><nd ref="1004" /><tag k="highway" v="residential" /><tag k="name" v="14th Street" /></way>
  <way id="5014"><nd ref="1008" /><nd ref="1003" /><tag k="highway" v="service" /><tag k="name" v="Elliewood Connector" /></way>
  <way id="5015"><nd ref="1007" /><nd ref="1003" /><tag k="highway" v="service" /><tag k="name" v="Library Walk" /></way>
  <way id="5016"><nd ref="1006" /><nd ref="1004" /><tag k="highway" v="residential" /><tag k="name" v="Monroe Lane" /></way>
  <way id="5017"><nd ref="1004" /><nd ref="1012" /><tag k="highway" v="secondary" /><tag k="oneway" v="yes" /><tag k="name" v="Eastbound Main Street" /></way>
</osm>
